0 METEOR 2-17 DEB
1 35367U 88005AB  13283.09306618  .00000644  00000-0  53064-3 0  1813
2 35367 082.5210 047.1309 0025209 164.8753 195.3164 13.87627946537344
0 METEOR 2-17 DEB
1 35367U 88005AB  13286.04941770  .00000720  00000-0  59431-3 0  1836
2 35367 082.5213 044.7618 0025669 157.1667 203.0686 13.87633117537750
0 METEOR 2-17 DEB
1 35367U 88005AB  13287.05890141  .00000757  00000-0  62553-3 0  1843
2 35367 082.5215 043.9526 0026006 154.4934 205.7620 13.87635147537891
0 METEOR 2-17 DEB
1 35367U 88005AB  13289.58260478  .00000876  00000-0  72619-3 0  1854
2 35367 082.5224 041.9271 0024920 148.4031 211.9005 13.87641257538245
0 METEOR 2-17 DEB
1 35367U 88005AB  13290.59207561  .00000947  00000-0  78621-3 0  1860
2 35367 082.5209 041.1185 0024274 144.9151 215.3716 13.87644224538389
0 METEOR 2-17 DEB
1 35367U 88005AB  13292.03417802  .00001027  00000-0  85287-3 0  1879
2 35367 082.5259 039.9633 0026745 143.6512 216.6657 13.87648089538582
0 METEOR 2-17 DEB
1 35367U 88005AB  13295.56732103  .00001210  00000-0  10077-2 0  1883
2 35367 082.5255 037.1352 0026721 133.8089 226.5622 13.87658571539074
